STARLINK-36634          
1 67593U 26018E   26050.23509516  .00060463  00000+0  31374-3 0  9990
2 67593  97.2843 115.1468 0001367  97.6402 262.5021 15.80848889  4401
STARLINK-36638          
1 67594U 26018F   26050.23398707  .00084674  00000+0  43774-3 0  9996
2 67594  97.2843 115.1482 0001373  57.2348 302.9052 15.80854494  4408
STARLINK-36628          
1 67595U 26018G   26050.18519615  .00107322  00000+0  71006-3 0  9999
2 67595  97.2837 115.0606 0001255 100.2357 259.9050 15.75233458  4399
STARLINK-36629          
1 67596U 26018H   26050.25648767  .00135052  00000+0  89013-3 0  9997
2 67596  97.2832 115.1162 0001695 103.8588 256.2866 15.75240173  4405
STARLINK-36384          
1 67597U 26018J   26050.23104223  .00184554  00000+0  94178-3 0  9999
2 67597  97.2848 115.1515 0001088  98.9965 261.1427 15.80867646  4408
STARLINK-36358          
1 67598U 26018K   26050.25049047  .00113780  00000+0  75247-3 0  9993
2 67598  97.2838 115.1248 0001387  71.4151 288.7265 15.75224225  4405
STARLINK-36582          
1 67599U 26018L   26050.25002315 -.00148613  00000+0 -10102-2 0  9994
2 67599  97.2841 115.1631 0001407  69.0895  16.3721 15.75252212  4484
STARLINK-36640          
1 67600U 26018M   26050.25437116  .00157473  00000+0  10347-2 0  9991
2 67600  97.2835 115.1188 0001792 104.3617 255.7847 15.75247383  4402
STARLINK-36635          
1 67601U 26018N   26050.22819750  .00215088  00000+0  10912-2 0  9992
2 67601  97.2848 115.1551 0001410  83.7184 276.4245 15.80916092  4405
STARLINK-36631          
1 67602U 26018P   26050.22581953  .00044949  00000+0  23383-3 0  9997
2 67602  97.2850 115.1580 0001490 107.4034 252.7398 15.80850245  4400
STARLINK-36626          
1 67603U 26018Q   26050.25002315 -.00129575  00000+0 -87910-3 0  9998
2 67603  97.2849 115.1785 0001055  75.2791  44.1920 15.75242428  4388
STARLINK-36605          
1 67604U 26018R   26050.18309101  .00159094  00000+0  10449-2 0  9993
2 67604  97.2838 115.0634 0000948 100.2222 259.9150 15.75252839  4396
STARLINK-36281          
1 67605U 26018S   26050.22457384  .00138932  00000+0  71237-3 0  9997
2 67605  97.2851 115.1592 0001615 103.9791 256.1657 15.80883069  4403
STARLINK-35843          
1 67606U 26018T   26050.24096473  .00086118  00000+0  57213-3 0  9994
2 67606  97.2837 115.1376 0001253  97.0436 263.0972 15.75202439  4402
STARLINK-36351          
1 67607U 26018U   26050.25002315 -.00103135  00000+0 -69804-3 0  9998
2 67607  97.2849 115.1827 0001164  62.9834  66.4839 15.75220624  4448
STARLINK-36411          
1 67608U 26018V   26050.21941224  .00090278  00000+0  46623-3 0  9991
2 67608  97.2851 115.1652 0001458  96.3532 263.7902 15.80860799  4408
STARLINK-36312          
1 67609U 26018W   26050.25002315 -.00161576  00000+0 -11002-2 0  9999
2 67609  97.2849 115.1874 0001202  86.1443  55.3198 15.75248600  4448
STARLINK-36387          
1 67610U 26018X   26050.21678495  .00119579  00000+0  61471-3 0  9995
2 67610  97.2850 115.1694 0002068 115.8093 244.3388 15.80878716  4404
STARLINK-36636          
1 67611U 26018Y   26050.21571367  .00178969  00000+0  91272-3 0  9996
2 67611  97.2869 115.1636 0001430  66.7216 293.4203 15.80895567  4408
STARLINK-36407          
1 67612U 26018Z   26050.25002315 -.00091947  00000+0 -62132-3 0  9998
2 67612  97.2841 115.2027 0001674  78.0747  99.3691 15.75222722  4493
STARLINK-36597          
1 67613U 26018AA  26050.21377467  .00080678  00000+0  41715-3 0  9999
2 67613  97.2851 115.1722 0001903  64.1216 296.0249 15.80862450  4408
NEONSAT-1A              
1 67614U 26019A   26049.93098426  .00003398  00000+0  22675-3 0  9991
2 67614  97.4105 174.1829 0012133 234.3066 125.7034 15.07629361  2990
ELECTRON KICK STAGE R/B 
1 67616U 26019C   26050.29478905  .00456956  63724-4  19335-2 0  9995
2 67616  97.4037 176.1354 0163893 189.1618 170.6646 15.67780680  3156
STARLINK-36548          
1 67617U 26020A   26049.99050280  .00328675  00000+0  19175-2 0  9996
2 67617  42.9971 255.9289 0002864 262.5909  97.4635 15.76676826  3139
STARLINK-36601          
1 67618U 26020B   26050.02081987  .00269721  00000+0  12393-2 0  9992
2 67618  42.9987 255.2751 0002016 260.1769  99.8875 15.82095833  3144
STARLINK-36119          
1 67619U 26020C   26049.03791792  .00240127  00000+0  14320-2 0  9995
2 67619  42.9969 261.6876 0001947 258.7078 101.3573 15.76432021  2984
STARLINK-36607          
1 67620U 26020D   26048.94583094  .00639263  00000+0  27681-2 0  9997
2 67620  42.9966 261.8408 0002739 285.0564  75.0004 15.82415698  2972
STARLINK-36615          
1 67621U 26020E   26050.01969826  .00307854  00000+0  14067-2 0  9992
2 67621  42.9976 255.2671 0001889 257.8287 102.2374 15.82114142  3140
STARLINK-36614          
1 67622U 26020F   26049.98393337  .00129952  00000+0  78726-3 0  9999
2 67622  42.9976 255.8760 0001642 270.6542  89.4139 15.76411350  3138
STARLINK-36600          
1 67623U 26020G   26050.04948407  .00327694  00000+0  19356-2 0  9999
2 67623  42.9970 255.5084 0001659 257.7525 102.3159 15.76400731  3143
STARLINK-36439          
1 67624U 26020H   26050.03853332  .00119613  00000+0  72577-3 0  9996
2 67624  42.9973 255.4197 0002126 249.1230 110.9412 15.76409689  3147
STARLINK-36438          
1 67625U 26020J   26050.04510480  .00314890  00000+0  18642-2 0  9998
2 67625  42.9968 255.4731 0001527 257.8553 102.2145 15.76384750  3142
STARLINK-36436          
1 67626U 26020K   26048.94185021  .00432403  00000+0  19514-2 0  9994
2 67626  42.9968 261.8078 0002173 315.8447  44.2251 15.82057753  2973
STARLINK-36502          
1 67627U 26020L   26050.01583265  .00213511  00000+0  98898-3 0  9998
2 67627  42.9969 255.2379 0001582 312.4813  47.5925 15.82074790  3143
STARLINK-36532          
1 67628U 26020M   26050.01386625  .00288256  00000+0  13220-2 0  9993
2 67628  42.9974 255.2187 0001844 262.9234  97.1428 15.82087004  3145
STARLINK-36367          
1 67629U 26020N   26050.25002315 -.00027113  00000+0 -16393-3 0  9991
2 67629  42.9986 253.9792 0001759 272.7936 271.1053 15.76380374  4428
STARLINK-36416          
1 67630U 26020P   26050.04291638  .00258491  00000+0  15405-2 0  9993
2 67630  42.9968 255.4546 0001363 280.5947  79.4769 15.76394589  3148
STARLINK-36527          
1 67631U 26020Q   26050.01277385  .00279982  00000+0  12846-2 0  9998
2 67631  42.9970 255.2097 0002424 262.0998  97.9598 15.82098922  3145
STARLINK-36633          
1 67632U 26020R   26050.25002315 -.01834666  00000+0 -11998-1 0  9999
2 67632  42.9992 253.7632 0001734 260.4286   9.4977 15.77930394  4426
STARLINK-36637          
1 67633U 26020S   26050.04072886  .00257169  00000+0  15328-2 0  9993
2 67633  42.9963 255.4375 0001020 311.2277  48.8505 15.76395142  3148
STARLINK-36617          
1 67634U 26020T   26050.01075117  .00277398  00000+0  12721-2 0  9991
2 67634  42.9972 255.1937 0002625 242.9758 117.0846 15.82116284  3148
STARLINK-36627          
1 67635U 26020U   26050.03416093  .00257223  00000+0  15317-2 0  9995
2 67635  42.9969 255.3832 0000930 310.5248  49.5541 15.76416244  3147
STARLINK-36624          
1 67636U 26020V   26050.25002315 -.00139490  00000+0 -86580-3 0  9996
2 67636  42.9993 253.7912 0001673 276.2543 342.2862 15.76416076  4421
STARLINK-36610          
1 67637U 26020W   26050.03633398  .00239185  00000+0  14145-2 0  9991
2 67637  42.9963 255.4010 0005809 234.7414 125.2912 15.76609658  3141
STARLINK-36599          
1 67638U 26020X   26050.00659907  .00214567  00000+0  99361-3 0  9994
2 67638  42.9966 255.1598 0002775 228.5556 131.5078 15.82075329  3142
STARLINK-36595          
1 67639U 26020Y   26050.25002315 -.00054488  00000+0 -33345-3 0  9993
2 67639  42.9991 253.6970 0002153 270.3533  25.5220 15.76384660  4425
STARLINK-36570          
1 67640U 26020Z   26050.02977373  .00290378  00000+0  17179-2 0  9999
2 67640  42.9967 255.3474 0001663 272.5867  87.4813 15.76469999  3149
STARLINK-36514          
1 67641U 26020AA  26050.00351885  .00262782  00000+0  12085-2 0  9991
2 67641  42.9976 255.1321 0002245 247.3359 112.7275 15.82095097  3147
STARLINK-36556          
1 67642U 26020AB  26050.25002315 -.00010699  00000+0 -62767-4 0  9994
2 67642  42.9986 253.8524 0001818 266.3245 327.3401 15.76372224  4429
STARLINK-36533          
1 67643U 26020AC  26050.03196347  .00226545  00000+0  13531-2 0  9990
2 67643  42.9978 255.3639 0001821 246.9232 113.1445 15.76435954  3146
STARLINK-36623          
1 67644U 26020AD  26050.25002315  .00013018  00000+0  82849-4 0  9995
2 67644  42.9990 253.9450 0001821 261.7904 294.5592 15.76354829  4427
STARLINK-36619          
1 67645U 26020AE  26050.02320296  .00188563  00000+0  11314-2 0  9997
2 67645  42.9969 255.2928 0002209 257.7830 102.2792 15.76444627  3144
ALSAT-3B                
1 67646U 26021A   26050.25849124  .00006349  00000+0  26727-3 0  9996
2 67646  97.4702 124.6748 0012397 193.9331 166.1566 15.23657676  2914
CZ-2C R/B               
1 67647U 26021B   26050.26173594  .00011287  00000+0  34063-3 0  9998
2 67647  97.6542 125.3599 0153318  75.3239 286.4937 15.23575973  2894
STARLINK-36719          
1 67648U 26022A   26050.23968579  .00100075  00000+0  66329-3 0  9996
2 67648  97.2831  83.2936 0001236  98.8182 261.3224 15.75214438  2644
STARLINK-36342          
1 67649U 26022B   26050.23897185  .00076495  00000+0  50902-3 0  9999
2 67649  97.2829  83.2943 0001705 107.4748 252.6704 15.75194999  2641
STARLINK-36703          
1 67650U 26022C   26050.23791128  .00085035  00000+0  56479-3 0  9996
2 67650  97.2831  83.2954 0001260  93.5350 266.6060 15.75211889  2646
STARLINK-36696          
1 67651U 26022D   26050.23614784  .00086122  00000+0  57230-3 0  9993
2 67651  97.2831  83.2984 0001651 123.3914 236.7510 15.75196125  2645
STARLINK-36699          
1 67652U 26022E   26050.23544344  .00116190  00000+0  76884-3 0  9993
2 67652  97.2829  83.2991 0001248 103.8944 256.2460 15.75204146  2643
